IRIDIUM 63              
1 25286U 98021B   25314.24116380  .00000739  00000+0  24444-3 0  9992
2 25286  86.4020  20.8464 0002250  99.5180 260.6272 14.36695496444819
IRIDIUM 69              
1 25319U 98026A   25314.49884963  .00001057  00000+0  32195-3 0  9996
2 25319  86.4007  33.5622 0000589 197.7581 162.3598 14.41160427444138
IRIDIUM 71              
1 25320U 98026B   25314.48813908  .00000566  00000+0  16903-3 0  9991
2 25320  86.4009  28.2425 0001847  31.3560 328.7749 14.41287655444669
IRIDIUM 73              
1 25344U 98032C   25314.80146010  .00000979  00000+0  23781-3 0  9993
2 25344  86.4421 344.5646 0001977 108.2236 251.9185 14.51925013451836
IRIDIUM 82              
1 25467U 98051A   25314.52097249  .00059389  00000+0  12221-2 0  9993
2 25467  86.3642  37.2779 0068755  98.2136 262.6925 15.43142041446427
