<?xml version="1.0" encoding="UTF-8"?>
<ndm xmlns:xsi="http://www.w3.org/2001/XMLSchema-instance" xsi:noNamespaceSchemaLocation="https://sanaregistry.org/r/ndmxml_unqualified/ndmxml-2.0.0-master-2.0.xsd">
<omm id="CCSDS_OMM_VERS" version="2.0">
<header><CREATION_DATE/><ORIGINATOR/></header><body><segment><metadata><OBJECT_NAME>IRIDIUM 63</OBJECT_NAME><OBJECT_ID>1998-021B</OBJECT_ID><CENTER_NAME>EARTH</CENTER_NAME><REF_FRAME>TEME</REF_FRAME><TIME_SYSTEM>UTC</TIME_SYSTEM><MEAN_ELEMENT_THEORY>SGP4</MEAN_ELEMENT_THEORY></metadata><data><meanElements><EPOCH>2025-11-10T05:47:16.552320</EPOCH><MEAN_MOTION>14.36695496</MEAN_MOTION><ECCENTRICITY>.00022507</ECCENTRICITY><INCLINATION>86.4020</INCLINATION><RA_OF_ASC_NODE>20.8464</RA_OF_ASC_NODE><ARG_OF_PERICENTER>99.5180</ARG_OF_PERICENTER><MEAN_ANOMALY>260.6272</MEAN_ANOMALY></meanElements><tleParameters><EPHEMERIS_TYPE>0</EPHEMERIS_TYPE><CLASSIFICATION_TYPE>U</CLASSIFICATION_TYPE><NORAD_CAT_ID>25286</NORAD_CAT_ID><ELEMENT_SET_NO>999</ELEMENT_SET_NO><REV_AT_EPOCH>44481</REV_AT_EPOCH><BSTAR>.24443544E-3</BSTAR><MEAN_MOTION_DOT>.739E-5</MEAN_MOTION_DOT><MEAN_MOTION_DDOT>0</MEAN_MOTION_DDOT></tleParameters></data></segment></body></omm>
<omm id="CCSDS_OMM_VERS" version="2.0">
<header><CREATION_DATE/><ORIGINATOR/></header><body><segment><metadata><OBJECT_NAME>IRIDIUM 69</OBJECT_NAME><OBJECT_ID>1998-026A</OBJECT_ID><CENTER_NAME>EARTH</CENTER_NAME><REF_FRAME>TEME</REF_FRAME><TIME_SYSTEM>UTC</TIME_SYSTEM><MEAN_ELEMENT_THEORY>SGP4</MEAN_ELEMENT_THEORY></metadata><data><meanElements><EPOCH>2025-11-10T11:58:20.608032</EPOCH><MEAN_MOTION>14.41160427</MEAN_MOTION><ECCENTRICITY>.00005899</ECCENTRICITY><INCLINATION>86.4007</INCLINATION><RA_OF_ASC_NODE>33.5622</RA_OF_ASC_NODE><ARG_OF_PERICENTER>197.7581</ARG_OF_PERICENTER><MEAN_ANOMALY>162.3598</MEAN_ANOMALY></meanElements><tleParameters><EPHEMERIS_TYPE>0</EPHEMERIS_TYPE><CLASSIFICATION_TYPE>U</CLASSIFICATION_TYPE><NORAD_CAT_ID>25319</NORAD_CAT_ID><ELEMENT_SET_NO>999</ELEMENT_SET_NO><REV_AT_EPOCH>44413</REV_AT_EPOCH><BSTAR>.32194577E-3</BSTAR><MEAN_MOTION_DOT>.1057E-4</MEAN_MOTION_DOT><MEAN_MOTION_DDOT>0</MEAN_MOTION_DDOT></tleParameters></data></segment></body></omm>
<omm id="CCSDS_OMM_VERS" version="2.0">
<header><CREATION_DATE/><ORIGINATOR/></header><body><segment><metadata><OBJECT_NAME>IRIDIUM 71</OBJECT_NAME><OBJECT_ID>1998-026B</OBJECT_ID><CENTER_NAME>EARTH</CENTER_NAME><REF_FRAME>TEME</REF_FRAME><TIME_SYSTEM>UTC</TIME_SYSTEM><MEAN_ELEMENT_THEORY>SGP4</MEAN_ELEMENT_THEORY></metadata><data><meanElements><EPOCH>2025-11-10T11:42:55.216512</EPOCH><MEAN_MOTION>14.41287655</MEAN_MOTION><ECCENTRICITY>.00018478</ECCENTRICITY><INCLINATION>86.4009</INCLINATION><RA_OF_ASC_NODE>28.2425</RA_OF_ASC_NODE><ARG_OF_PERICENTER>31.3560</ARG_OF_PERICENTER><MEAN_ANOMALY>328.7749</MEAN_ANOMALY></meanElements><tleParameters><EPHEMERIS_TYPE>0</EPHEMERIS_TYPE><CLASSIFICATION_TYPE>U</CLASSIFICATION_TYPE><NORAD_CAT_ID>25320</NORAD_CAT_ID><ELEMENT_SET_NO>999</ELEMENT_SET_NO><REV_AT_EPOCH>44466</REV_AT_EPOCH><BSTAR>.16902883E-3</BSTAR><MEAN_MOTION_DOT>.566E-5</MEAN_MOTION_DOT><MEAN_MOTION_DDOT>0</MEAN_MOTION_DDOT></tleParameters></data></segment></body></omm>
<omm id="CCSDS_OMM_VERS" version="2.0">
<header><CREATION_DATE/><ORIGINATOR/></header><body><segment><metadata><OBJECT_NAME>IRIDIUM 73</OBJECT_NAME><OBJECT_ID>1998-032C</OBJECT_ID><CENTER_NAME>EARTH</CENTER_NAME><REF_FRAME>TEME</REF_FRAME><TIME_SYSTEM>UTC</TIME_SYSTEM><MEAN_ELEMENT_THEORY>SGP4</MEAN_ELEMENT_THEORY></metadata><data><meanElements><EPOCH>2025-11-10T19:14:06.152640</EPOCH><MEAN_MOTION>14.51925013</MEAN_MOTION><ECCENTRICITY>.00019776</ECCENTRICITY><INCLINATION>86.4421</INCLINATION><RA_OF_ASC_NODE>344.5646</RA_OF_ASC_NODE><ARG_OF_PERICENTER>108.2236</ARG_OF_PERICENTER><MEAN_ANOMALY>251.9185</MEAN_ANOMALY></meanElements><tleParameters><EPHEMERIS_TYPE>0</EPHEMERIS_TYPE><CLASSIFICATION_TYPE>U</CLASSIFICATION_TYPE><NORAD_CAT_ID>25344</NORAD_CAT_ID><ELEMENT_SET_NO>999</ELEMENT_SET_NO><REV_AT_EPOCH>45183</REV_AT_EPOCH><BSTAR>.2378087E-3</BSTAR><MEAN_MOTION_DOT>.979E-5</MEAN_MOTION_DOT><MEAN_MOTION_DDOT>0</MEAN_MOTION_DDOT></tleParameters></data></segment></body></omm>
<omm id="CCSDS_OMM_VERS" version="2.0">
<header><CREATION_DATE/><ORIGINATOR/></header><body><segment><metadata><OBJECT_NAME>IRIDIUM 82</OBJECT_NAME><OBJECT_ID>1998-051A</OBJECT_ID><CENTER_NAME>EARTH</CENTER_NAME><REF_FRAME>TEME</REF_FRAME><TIME_SYSTEM>UTC</TIME_SYSTEM><MEAN_ELEMENT_THEORY>SGP4</MEAN_ELEMENT_THEORY></metadata><data><meanElements><EPOCH>2025-11-10T12:30:12.023136</EPOCH><MEAN_MOTION>15.43142041</MEAN_MOTION><ECCENTRICITY>.00687558</ECCENTRICITY><INCLINATION>86.3642</INCLINATION><RA_OF_ASC_NODE>37.2779</RA_OF_ASC_NODE><ARG_OF_PERICENTER>98.2136</ARG_OF_PERICENTER><MEAN_ANOMALY>262.6925</MEAN_ANOMALY></meanElements><tleParameters><EPHEMERIS_TYPE>0</EPHEMERIS_TYPE><CLASSIFICATION_TYPE>U</CLASSIFICATION_TYPE><NORAD_CAT_ID>25467</NORAD_CAT_ID><ELEMENT_SET_NO>999</ELEMENT_SET_NO><REV_AT_EPOCH>44642</REV_AT_EPOCH><BSTAR>.12221143E-2</BSTAR><MEAN_MOTION_DOT>.59389E-3</MEAN_MOTION_DOT><MEAN_MOTION_DDOT>0</MEAN_MOTION_DDOT></tleParameters></data></segment></body></omm>
</ndm>
